{
  "type": "FeatureCollection",
  "generator": "overpass-turbo",
  "copyright": "The data included in this document is from www.openstreetmap.org. The data is made available under ODbL.",
  "timestamp": "2026-02-11T16:35:59Z",
  "features": [
    {
      "type": "Feature",
      "properties": {
        "@id": "way/43599019",
        "addr:city": "Sterling",
        "addr:state": "VA",
        "leisure": "water_park",
        "name": "Volcano Island Waterpark",
        "operator": "Northern Virginia Regional Park Authority",
        "website": "https://www.novaparks.com/waterparks/volcano-island-waterpark",
        "@geometry": "center"
      },
      "geometry": {
        "type": "Point",
        "coordinates": [
          -77.3888534,
          39.0608013
        ]
      },
      "id": "way/43599019"
    },
    {
      "type": "Feature",
      "properties": {
        "@id": "way/44622489",
        "addr:city": "Reston",
        "addr:housenumber": "1800",
        "addr:postcode": "20190",
        "addr:state": "VA",
        "addr:street": "Michael Faraday Court",
        "building": "yes",
        "leisure": "sports_centre",
        "name": "Skatequest Ice Rinks",
        "sport": "ice_skating",
        "@geometry": "center"
      },
      "geometry": {
        "type": "Point",
        "coordinates": [
          -77.3309862,
          38.9494884
        ]
      },
      "id": "way/44622489"
    },
    {
      "type": "Feature",
      "properties": {
        "@id": "way/45077047",
        "addr:city": "Herndon",
        "addr:housenumber": "13348",
        "addr:postcode": "20171",
        "addr:state": "VA",
        "addr:street": "Franklin Farm Road",
        "arcade_game": "video_game",
        "building": "yes",
        "description": "Launch Trampoline Park is a 25,000 sq. ft. indoor sports & family entertainment facility with over 16,000 sq. feet of connected trampolines forming one GIANT jumping surface. Offers Ninja Course, Battle Beam, Jousting area, arcade and full menu Cafe.",
        "leisure": "trampoline_park",
        "name": "Launch Trampoline Park",
        "note": "Hours: Sunday 10am-8pm Monday 3pm-8pm Tuesday 10am-8pm Wednesday 3pm-8pm Thursday 3pm-8pm Friday 5pm-9pm Saturday 10am-11pm",
        "phone": "+1 888-845-5867",
        "sport": "trampoline; laser_tag",
        "start_date": "November 17, 2017",
        "website": "https://launchfamilyentertainment.com/herndon/",
        "@geometry": "center"
      },
      "geometry": {
        "type": "Point",
        "coordinates": [
          -77.4083624,
          38.9093391
        ]
      },
      "id": "way/45077047"
    },
    {
      "type": "Feature",
      "properties": {
        "@id": "way/45515416",
        "addr:city": "Manassas",
        "addr:state": "VA",
        "leisure": "water_park",
        "name": "SplashDown Waterpark",
        "sport": "swimming",
        "website": "https://www.splashdownwaterpark.com/",
        "wikidata": "Q7578373",
        "@geometry": "center"
      },
      "geometry": {
        "type": "Point",
        "coordinates": [
          -77.4773285,
          38.7941631
        ]
      },
      "id": "way/45515416"
    },
    {
      "type": "Feature",
      "properties": {
        "@id": "way/45572757",
        "addr:city": "Manassas",
        "addr:country": "US",
        "addr:housenumber": "7878",
        "addr:postcode": "20109",
        "addr:state": "VA",
        "addr:street": "Sudley Road",
        "building": "yes",
        "building:levels": "1",
        "leisure": "amusement_arcade",
        "name": "Skate n Fun Zone",
        "source": "walking survey 2/2018",
        "sport": "roller_skating",
        "website": "https://skatenfunzone.com/contact/",
        "wheelchair": "yes",
        "@geometry": "center"
      },
      "geometry": {
        "type": "Point",
        "coordinates": [
          -77.5146979,
          38.7856308
        ]
      },
      "id": "way/45572757"
    },
    {
      "type": "Feature",
      "properties": {
        "@id": "way/45778116",
        "addr:city": "Manassas",
        "addr:housenumber": "8902",
        "addr:postcode": "20110",
        "addr:state": "VA",
        "addr:street": "Mathis Avenue",
        "leisure": "miniature_golf",
        "name": "The Magic Putting Place",
        "sport": "golf",
        "website": "https://magicputtingplace.com/",
        "@geometry": "center"
      },
      "geometry": {
        "type": "Point",
        "coordinates": [
          -77.4621535,
          38.7622359
        ]
      },
      "id": "way/45778116"
    },
    {
      "type": "Feature",
      "properties": {
        "@id": "way/48234631",
        "addr:city": "Sterling",
        "addr:state": "VA",
        "amenity": "restaurant",
        "brand": "Chuck E. Cheese",
        "brand:wikidata": "Q2438391",
        "building": "yes",
        "cuisine": "pizza",
        "leisure": "amusement_arcade",
        "name": "Chuck E. Cheese",
        "website": "https://locations.chuckecheese.com/us/va/sterling/21025-dulles-town-cir",
        "@geometry": "center"
      },
      "geometry": {
        "type": "Point",
        "coordinates": [
          -77.4269364,
          39.0306208
        ]
      },
      "id": "way/48234631"
    },
    {
      "type": "Feature",
      "properties": {
        "@id": "way/60139156",
        "addr:city": "Fort Myer",
        "addr:housenumber": "224",
        "addr:postcode": "22211",
        "addr:state": "VA",
        "addr:street": "McNair Road",
        "building": "yes",
        "leisure": "bowling_alley",
        "name": "JBMHH Bowling Center",
        "opening_hours": "Mo 07:00-17:00; Tu-Fr 07:00-21:00",
        "phone": "+1-703-528-4766",
        "sport": "10pin",
        "website": "https://jbmhh.armymwr.com/programs/bowling-center",
        "@geometry": "center"
      },
      "geometry": {
        "type": "Point",
        "coordinates": [
          -77.0803486,
          38.8779379
        ]
      },
      "id": "way/60139156"
    },
    {
      "type": "Feature",
      "properties": {
        "@id": "way/65489888",
        "addr:city": "Sterling",
        "addr:state": "VA",
        "leisure": "miniature_golf",
        "name": "Algonkian Mini Golf",
        "operator": "Northern Virginia Regional Park Authority",
        "website": "https://www.novaparks.com/parks/algonkian-regional-park/things-to-do/mini-golf",
        "@geometry": "center"
      },
      "geometry": {
        "type": "Point",
        "coordinates": [
          -77.3890889,
          39.0604422
        ]
      },
      "id": "way/65489888"
    },
    {
      "type": "Feature",
      "properties": {
        "@id": "way/65837390",
        "addr:city": "Burke",
        "addr:state": "VA",
        "attraction": "train",
        "gauge": "610",
        "name": "Burke Lake Miniature Train",
        "railway": "miniature",
        "usage": "tourism",
        "website": "https://www.fairfaxcounty.gov/parks/burke-lake/rides",
        "@geometry": "center"
      },
      "geometry": {
        "type": "Point",
        "coordinates": [
          -77.304443,
          38.7634163
        ]
      },
      "id": "way/65837390"
    },
    {
      "type": "Feature",
      "properties": {
        "@id": "way/69547096",
        "building": "roof",
        "building:levels": "2",
        "leisure": "ice_rink",
        "name": "Reston Town Center Pavilion",
        "operator": "Boston Properties",
        "roof:material": "glass",
        "seasonal": "yes",
        "source": "Reston Town Center Map",
        "sport": "ice_hockey;ice_skating",
        "@geometry": "center"
      },
      "geometry": {
        "type": "Point",
        "coordinates": [
          -77.3569078,
          38.9583654
        ]
      },
      "id": "way/69547096"
    },
    {
      "type": "Feature",
      "properties": {
        "@id": "way/78343475",
        "addr:city": "Fairfax",
        "addr:state": "VA",
        "leisure": "water_park",
        "name": "Water Mine Family Swimmin' Hole",
        "sport": "swimming",
        "website": "https://www.fairfaxcounty.gov/parks/watermine",
        "@geometry": "center"
      },
      "geometry": {
        "type": "Point",
        "coordinates": [
          -77.3175581,
          38.9674771
        ]
      },
      "id": "way/78343475"
    },
    {
      "type": "Feature",
      "properties": {
        "@id": "way/94046207",
        "addr:city": "Dale City",
        "addr:housenumber": "14085",
        "addr:postcode": "22192",
        "addr:state": "VA",
        "addr:street": "Shoppers Best Way",
        "amenity": "restaurant",
        "brand": "Chuck E. Cheese",
        "brand:wikidata": "Q2438391",
        "building": "yes",
        "cuisine": "pizza",
        "leisure": "amusement_arcade",
        "name": "Chuck E. Cheese",
        "opening_hours": "Mo-Th,Su 11:00-21:00; Fr 11:00-22:00; Sa 10:00-22:00",
        "phone": "+1 703-670-4522",
        "source": "survey",
        "website": "https://locations.chuckecheese.com/us/va/dalecity/14085-shoppers-best-way",
        "@geometry": "center"
      },
      "geometry": {
        "type": "Point",
        "coordinates": [
          -77.2983061,
          38.6504252
        ]
      },
      "id": "way/94046207"
    },
    {
      "type": "Feature",
      "properties": {
        "@id": "way/95048277",
        "building": "yes",
        "leisure": "sports_centre",
        "name": "Prince William Ice Center",
        "sport": "ice_hockey;ice_skating",
        "website": "https://www.pwice.com/",
        "@geometry": "center"
      },
      "geometry": {
        "type": "Point",
        "coordinates": [
          -77.3627149,
          38.6605873
        ]
      },
      "id": "way/95048277"
    },
    {
      "type": "Feature",
      "properties": {
        "@id": "way/107701997",
        "addr:city": "Burke",
        "addr:state": "VA",
        "leisure": "miniature_golf",
        "name": "Burke Lake Mini Golf",
        "website": "https://www.fairfaxcounty.gov/parks/burke-lake/minigolf",
        "@geometry": "center"
      },
      "geometry": {
        "type": "Point",
        "coordinates": [
          -77.305926,
          38.7622937
        ]
      },
      "id": "way/107701997"
    },
    {
      "type": "Feature",
      "properties": {
        "@id": "way/121176239",
        "addr:city": "Oakton",
        "addr:state": "VA",
        "leisure": "miniature_golf",
        "name": "Oak Marr Mini Golf",
        "source": "bing",
        "website": "https://www.fairfaxcounty.gov/parks/golf/oak-marr/minigolf",
        "@geometry": "center"
      },
      "geometry": {
        "type": "Point",
        "coordinates": [
          -77.3152449,
          38.875518
        ]
      },
      "id": "way/121176239"
    },
    {
      "type": "Feature",
      "properties": {
        "@id": "way/131708572",
        "addr:city": "Arlington",
        "addr:housenumber": "6060",
        "addr:postcode": "22205",
        "addr:state": "VA",
        "addr:street": "Wilson Boulevard",
        "designation": "Upton Hill Regional Park",
        "fee": "yes",
        "leisure": "miniature_golf",
        "name": "Upton Hill Miniature Golf Course",
        "sport": "golf",
        "website": "https://www.novaparks.com/parks/upton-hill-regional-park/things-to-do/mini-golf",
        "@geometry": "center"
      },
      "geometry": {
        "type": "Point",
        "coordinates": [
          -77.1443854,
          38.8707454
        ]
      },
      "id": "way/131708572"
    },
    {
      "type": "Feature",
      "properties": {
        "@id": "way/131829023",
        "addr:city": "Arlington",
        "addr:housenumber": "6060",
        "addr:postcode": "22205",
        "addr:state": "VA",
        "addr:street": "Wilson Boulevard",
        "designation": "Upton Hill Regional Park",
        "leisure": "water_park",
        "name": "Ocean Dunes Waterpark",
        "operator": "NOVA Parks",
        "phone": "+1-703-534-3437",
        "website": "https://www.novaparks.com/waterparks/ocean-dunes-waterpark",
        "wheelchair": "yes",
        "@geometry": "center"
      },
      "geometry": {
        "type": "Point",
        "coordinates": [
          -77.1438723,
          38.8704314
        ]
      },
      "id": "way/131829023"
    },
    {
      "type": "Feature",
      "properties": {
        "@id": "way/133646018",
        "addr:city": "Fort Belvoir",
        "addr:housenumber": "5975",
        "addr:postcode": "22060",
        "addr:state": "VA",
        "addr:street": "Middleton Road",
        "leisure": "bowling_alley",
        "name": "Fort Belvoir Bowling Center",
        "opening_hours": "Su 10:00-19:00; Mo-Th 10:00-22:00; Fr-Sa 10:00-24:00",
        "phone": "+1-703-805-2991",
        "ref:building": "1199",
        "source:name": "survey",
        "sport": "10pin",
        "website": "https://belvoir.armymwr.com/programs/bowling-center",
        "@geometry": "center"
      },
      "geometry": {
        "type": "Point",
        "coordinates": [
          -77.1419978,
          38.6952045
        ]
      },
      "id": "way/133646018"
    },
    {
      "type": "Feature",
      "properties": {
        "@id": "way/141856729",
        "addr:city": "Leesburg",
        "addr:housenumber": "19246",
        "addr:postcode": "20175",
        "addr:state": "VA",
        "addr:street": "James Monroe Highway",
        "ele": "126",
        "gnis:feature_id": "2039429",
        "landuse": "animal_keeping",
        "name": "Leesburg Animal Park",
        "opening_hours": "Mo,Th-Fr 10:00-16:00; Sa-Su 09:30-16:00; Tu-We closed",
        "phone": "+1 703-433-0002",
        "tourism": "zoo",
        "website": "https://www.leesburganimalpark.com/",
        "@geometry": "center"
      },
      "geometry": {
        "type": "Point",
        "coordinates": [
          -77.5922111,
          39.0831974
        ]
      },
      "id": "way/141856729"
    },
    {
      "type": "Feature",
      "properties": {
        "@id": "way/145418154",
        "addr:city": "Burke",
        "addr:housenumber": "5615",
        "addr:state": "VA",
        "addr:street": "Guinea Road",
        "building": "yes",
        "leisure": "bowling_alley",
        "name": "Bowl America Burke",
        "phone": "+1 703-425-9303",
        "sport": "10pin",
        "website": "https://www.bowlero.com/location/bowl-america-burke",
        "@geometry": "center"
      },
      "geometry": {
        "type": "Point",
        "coordinates": [
          -77.29387,
          38.7985733
        ]
      },
      "id": "way/145418154"
    },
    {
      "type": "Feature",
      "properties": {
        "@id": "way/166118104",
        "addr:city": "McLean",
        "addr:state": "VA",
        "attraction": "carousel",
        "name": "Clemyjontri Carousel",
        "website": "https://www.fairfaxcounty.gov/parks/clemyjontri/carousel",
        "@geometry": "center"
      },
      "geometry": {
        "type": "Point",
        "coordinates": [
          -77.1567728,
          38.944671
        ]
      },
      "id": "way/166118104"
    },
    {
      "type": "Feature",
      "properties": {
        "@id": "way/207123286",
        "addr:city": "Falls Church",
        "addr:housenumber": "140",
        "addr:postcode": "22046",
        "addr:state": "VA",
        "addr:street": "South Maple Avenue",
        "building": "yes",
        "building:levels": "1",
        "leisure": "bowling_alley",
        "name": "Bowl America Falls Church",
        "sport": "10pin",
        "website": "https://www.bowlero.com/location/bowl-america-falls-church",
        "@geometry": "center"
      },
      "geometry": {
        "type": "Point",
        "coordinates": [
          -77.1743845,
          38.8820575
        ]
      },
      "id": "way/207123286"
    },
    {
      "type": "Feature",
      "properties": {
        "@id": "way/208264045",
        "addr:city": "Alexandria",
        "addr:housenumber": "6301",
        "addr:postcode": "22303",
        "addr:state": "VA",
        "addr:street": "Richmond Highway",
        "amenity": "restaurant",
        "brand": "Chuck E. Cheese",
        "brand:wikidata": "Q2438391",
        "building": "yes",
        "cuisine": "pizza",
        "leisure": "amusement_arcade",
        "name": "Chuck E. Cheese",
        "website": "https://locations.chuckecheese.com/us/va/alexandria/6301-richmond-hwy.",
        "@geometry": "center"
      },
      "geometry": {
        "type": "Point",
        "coordinates": [
          -77.076302,
          38.7805975
        ]
      },
      "id": "way/208264045"
    },
    {
      "type": "Feature",
      "properties": {
        "@id": "way/228620206",
        "addr:housenumber": "2017",
        "addr:postcode": "22307",
        "addr:state": "VA",
        "addr:street": "Belle View Boulevard",
        "building": "commercial",
        "ele": "6",
        "fee": "yes",
        "gnis:feature_id": "1491800",
        "leisure": "sports_centre",
        "name": "Mount Vernon Rec Center",
        "opening_hours": "Mo-Fr 07:00-19:00; Sa 07:00-18:00; Su 08:00-18:00",
        "source": "USGS Geonames",
        "sport": "multi;swimming;ice_hockey;ice_skating;climbing",
        "website": "https://www.fairfaxcounty.gov/parks/reccenter/mount-vernon",
        "@geometry": "center"
      },
      "geometry": {
        "type": "Point",
        "coordinates": [
          -77.0634771,
          38.7742797
        ]
      },
      "id": "way/228620206"
    },
    {
      "type": "Feature",
      "properties": {
        "@id": "way/230519771",
        "addr:city": "Manassas Park",
        "addr:housenumber": "9300",
        "addr:postcode": "20111",
        "addr:state": "VA",
        "addr:street": "Signal View Drive",
        "leisure": "water_park",
        "name": "Signal Bay Waterpark",
        "website": "https://www.manassasparkcommunitycenter.com/signal_bay_waterpark.php",
        "@geometry": "center"
      },
      "geometry": {
        "type": "Point",
        "coordinates": [
          -77.4408144,
          38.7545875
        ]
      },
      "id": "way/230519771"
    },
    {
      "type": "Feature",
      "properties": {
        "@id": "way/232410906",
        "addr:city": "Alexandria",
        "addr:state": "VA",
        "leisure": "miniature_golf",
        "name": "Cameron Run Mini Golf",
        "website": "https://www.novaparks.com/parks/cameron-run-regional-park/things-to-do/mini-golf",
        "@geometry": "center"
      },
      "geometry": {
        "type": "Point",
        "coordinates": [
          -77.1009533,
          38.8045516
        ]
      },
      "id": "way/232410906"
    },
    {
      "type": "Feature",
      "properties": {
        "@id": "way/233086804",
        "addr:city": "Fairfax",
        "addr:housenumber": "3779",
        "addr:postcode": "22031",
        "addr:state": "VA",
        "addr:street": "Pickett Road",
        "building": "yes",
        "ele": "125",
        "gnis:feature_id": "1491874",
        "leisure": "ice_rink",
        "name": "Fairfax Ice Arena",
        "seasonal": "no",
        "source": "Bing;USGS Geonames",
        "sport": "ice_skating;ice_hockey",
        "website": "https://www.fairfaxicearena.com/",
        "@geometry": "center"
      },
      "geometry": {
        "type": "Point",
        "coordinates": [
          -77.2724088,
          38.8486798
        ]
      },
      "id": "way/233086804"
    },
    {
      "type": "Feature",
      "properties": {
        "@id": "way/235633709",
        "addr:city": "Centreville",
        "addr:housenumber": "7700",
        "addr:postcode": "20121",
        "addr:state": "VA",
        "addr:street": "Bull Run Drive",
        "leisure": "water_park",
        "name": "Atlantis Waterpark",
        "operator": "Northern Virginia Regional Park Authority",
        "website": "https://www.novaparks.com/waterparks/atlantis-waterpark",
        "@geometry": "center"
      },
      "geometry": {
        "type": "Point",
        "coordinates": [
          -77.4785593,
          38.8025987
        ]
      },
      "id": "way/235633709"
    },
    {
      "type": "Feature",
      "properties": {
        "@id": "way/243504154",
        "addr:city": "Vienna",
        "addr:housenumber": "1228",
        "addr:postcode": "22182",
        "addr:state": "VA",
        "addr:street": "Hunter Mill Road",
        "alt_name": "Zoofari",
        "landuse": "animal_keeping",
        "name": "NOVA Wild",
        "old_name": "Reston Zoo",
        "opening_hours": "Mo-Su 10:00-16:00",
        "phone": "+1-703-757-9453",
        "tourism": "zoo",
        "website": "https://novawild.org/",
        "@geometry": "center"
      },
      "geometry": {
        "type": "Point",
        "coordinates": [
          -77.3148254,
          38.9727863
        ]
      },
      "id": "way/243504154"
    },
    {
      "type": "Feature",
      "properties": {
        "@id": "way/261326420",
        "addr:city": "Triangle",
        "addr:housenumber": "4701",
        "addr:postcode": "22172",
        "addr:state": "VA",
        "addr:street": "Locust Shade Drive",
        "leisure": "miniature_golf",
        "name": "Locust Shade Park Mini Golf",
        "website": "https://www.visitpwc.com/listing/locust-shade-park-mini-golf-course/2089/",
        "@geometry": "center"
      },
      "geometry": {
        "type": "Point",
        "coordinates": [
          -77.3524846,
          38.531506
        ]
      },
      "id": "way/261326420"
    },
    {
      "type": "Feature",
      "properties": {
        "@id": "way/262298939",
        "addr:city": "Falls Church",
        "addr:housenumber": "7900",
        "addr:postcode": "22042",
        "addr:state": "VA",
        "addr:street": "Route 29",
        "leisure": "miniature_golf",
        "name": "Jefferson Falls Mini Golf",
        "sport": "golf",
        "website": "https://www.fairfaxcounty.gov/parks/golf/jefferson/minigolf",
        "@geometry": "center"
      },
      "geometry": {
        "type": "Point",
        "coordinates": [
          -77.2156275,
          38.8763037
        ]
      },
      "id": "way/262298939"
    },
    {
      "type": "Feature",
      "properties": {
        "@id": "way/284323527",
        "addr:city": "Purcellville",
        "addr:housenumber": "250",
        "addr:postcode": "20132",
        "addr:state": "VA",
        "addr:street": "South Nursery Avenue",
        "building": "yes",
        "leisure": "sports_centre",
        "name": "Bush Tabernacle Skating Rink",
        "source": "Loudoun County GIS data",
        "sport": "roller_skating",
        "@geometry": "center"
      },
      "geometry": {
        "type": "Point",
        "coordinates": [
          -77.7149077,
          39.1340857
        ]
      },
      "id": "way/284323527"
    },
    {
      "type": "Feature",
      "properties": {
        "@id": "way/304386194",
        "addr:city": "Leesburg",
        "addr:state": "VA",
        "attraction": "water_slide",
        "leisure": "water_park",
        "name": "A.V. Symington Aquatic Center",
        "website": "https://www.leesburgva.gov/departments/parks-recreation/facilities/av-symington-aquatic-center",
        "@geometry": "center"
      },
      "geometry": {
        "type": "Point",
        "coordinates": [
          -77.5658265,
          39.1262038
        ]
      },
      "id": "way/304386194"
    },
    {
      "type": "Feature",
      "properties": {
        "@id": "way/350698287",
        "addr:city": "Springfield",
        "addr:place": "Springfield Mall",
        "addr:postcode": "22150",
        "addr:state": "VA",
        "air_conditioning": "yes",
        "amenity": "restaurant",
        "brand": "Dave & Buster's",
        "brand:wikidata": "Q5228205",
        "building": "yes",
        "building:levels": "1",
        "check_date": "2023-04-12",
        "cuisine": "american",
        "internet_access": "wlan",
        "internet_access:fee": "no",
        "internet_access:ssid": "D&B_Guest",
        "leisure": "amusement_arcade",
        "name": "Dave & Buster's",
        "opening_hours": "Mo-Th,Su 11:00-24:00; Fr-Sa 11:00-01:00",
        "smoking": "no",
        "takeaway": "yes",
        "website": "https://www.daveandbusters.com/us/en/about/locations/springfield",
        "wheelchair": "yes",
        "@geometry": "center"
      },
      "geometry": {
        "type": "Point",
        "coordinates": [
          -77.1754624,
          38.7741653
        ]
      },
      "id": "way/350698287"
    },
    {
      "type": "Feature",
      "properties": {
        "@id": "way/491795793",
        "addr:city": "Springfield",
        "addr:state": "VA",
        "leisure": "miniature_golf",
        "name": "Lucky Duck Miniature Golf",
        "website": "https://www.fairfaxcounty.gov/parks/Lake-Accotink/minigolf",
        "@geometry": "center"
      },
      "geometry": {
        "type": "Point",
        "coordinates": [
          -77.2153798,
          38.7943397
        ]
      },
      "id": "way/491795793"
    },
    {
      "type": "Feature",
      "properties": {
        "@id": "way/520844611",
        "addr:city": "Alexandria",
        "addr:state": "VA",
        "leisure": "water_park",
        "name": "Great Waves Waterpark",
        "website": "https://www.novaparks.com/waterparks/great-waves-waterpark",
        "@geometry": "center"
      },
      "geometry": {
        "type": "Point",
        "coordinates": [
          -77.1001095,
          38.8048984
        ]
      },
      "id": "way/520844611"
    },
    {
      "type": "Feature",
      "properties": {
        "@id": "way/597976244",
        "addr:city": "Arlington",
        "addr:housenumber": "627",
        "addr:postcode": "22203",
        "addr:state": "VA",
        "addr:street": "North Glebe Road",
        "addr:unit": "800",
        "building:levels": "8",
        "building:part": "yes",
        "leisure": "ice_rink",
        "level": "7",
        "name": "MedStar Capitals Iceplex",
        "phone": "+1 571-224-0555",
        "seasonal": "no",
        "sport": "ice_skating;ice_hockey",
        "website": "https://www.medstarcapitalsiceplex.com/",
        "@geometry": "center"
      },
      "geometry": {
        "type": "Point",
        "coordinates": [
          -77.1101546,
          38.8787884
        ]
      },
      "id": "way/597976244"
    },
    {
      "type": "Feature",
      "properties": {
        "@id": "way/690940469",
        "addr:city": "Leesburg",
        "addr:housenumber": "19201",
        "addr:postcode": "20175",
        "addr:state": "VA",
        "addr:street": "Compass Creek Parkway SE",
        "building": "commercial",
        "leisure": "ice_rink",
        "name": "ION International Training Center",
        "note": "Opening on June 15, 2019",
        "source": "https://www.theburn.com/2019/05/05/ion-skating-center-grand-opening-june-15-16/",
        "sport": "ice_skating",
        "website": "https://ionitc.com/",
        "@geometry": "center"
      },
      "geometry": {
        "type": "Point",
        "coordinates": [
          -77.5650062,
          39.0854517
        ]
      },
      "id": "way/690940469"
    },
    {
      "type": "Feature",
      "properties": {
        "@id": "node/774102746",
        "addr:city": "Fairfax",
        "addr:housenumber": "11230",
        "addr:postcode": "22030",
        "addr:state": "VA",
        "addr:street": "Waples Mill Road",
        "addr:unit": "Ste 110",
        "leisure": "escape_game",
        "name": "Break From Reality Escape Rooms",
        "phone": "+1 703-344-1684",
        "website": "https://www.dmvescaperoom.com"
      },
      "geometry": {
        "type": "Point",
        "coordinates": [
          -77.3345041,
          38.8584156
        ]
      },
      "id": "node/774102746"
    },
    {
      "type": "Feature",
      "properties": {
        "@id": "way/782563713",
        "addr:city": "Woodbrige",
        "addr:state": "VA",
        "leisure": "miniature_golf",
        "name": "Lake Ridge Park Mini Golf",
        "website": "https://www.visitpwc.com/listing/lake-ridge-park-mini-golf-course/2090/",
        "@geometry": "center"
      },
      "geometry": {
        "type": "Point",
        "coordinates": [
          -77.3213727,
          38.6943426
        ]
      },
      "id": "way/782563713"
    },
    {
      "type": "Feature",
      "properties": {
        "@id": "way/851925563",
        "access": "customers",
        "addr:city": "Springfield",
        "addr:housenumber": "7550",
        "addr:postcode": "22153",
        "addr:state": "VA",
        "addr:street": "Reservation Drive",
        "brand": "Go Ape",
        "brand:wikidata": "Q5574692",
        "fee": "yes",
        "landuse": "recreation_ground",
        "leisure": "sports_centre",
        "name": "Go Ape Zipline & Adventure Park",
        "operator": "Go Ape",
        "sport": "climbing_adventure",
        "website": "https://www.goape.com/location/virginia-springfield/",
        "@geometry": "center"
      },
      "geometry": {
        "type": "Point",
        "coordinates": [
          -77.2762464,
          38.7472841
        ]
      },
      "id": "way/851925563"
    },
    {
      "type": "Feature",
      "properties": {
        "@id": "way/983070204",
        "addr:city": "Herdon",
        "addr:state": "VA",
        "attraction": "carousel",
        "building": "yes",
        "name": "Herschell Carousel",
        "tourism": "attraction",
        "website": "https://www.fairfaxcounty.gov/parks/frying-pan-park/carousel",
        "@geometry": "center"
      },
      "geometry": {
        "type": "Point",
        "coordinates": [
          -77.4106649,
          38.9370834
        ]
      },
      "id": "way/983070204"
    },
    {
      "type": "Feature",
      "properties": {
        "@id": "way/1024744784",
        "addr:city": "Arlington",
        "addr:housenumber": "6060",
        "addr:postcode": "22205",
        "addr:state": "VA",
        "addr:street": "Wilson Boulevard",
        "fee": "yes",
        "leisure": "sports_centre",
        "name": "Climb UPton",
        "sport": "climbing_adventure",
        "website": "https://www.novaparks.com/parks/climb-upton",
        "@geometry": "center"
      },
      "geometry": {
        "type": "Point",
        "coordinates": [
          -77.1432351,
          38.8714884
        ]
      },
      "id": "way/1024744784"
    },
    {
      "type": "Feature",
      "properties": {
        "@id": "way/1180086489",
        "addr:city": "Tysons",
        "addr:state": "VA",
        "leisure": "miniature_golf",
        "level": "9",
        "location": "roof",
        "name": "Perch Putt",
        "website": "https://www.perchputt.com/",
        "@geometry": "center"
      },
      "geometry": {
        "type": "Point",
        "coordinates": [
          -77.2108966,
          38.9261523
        ]
      },
      "id": "way/1180086489"
    },
    {
      "type": "Feature",
      "properties": {
        "@id": "way/1318854277",
        "addr:city": "Purcellville",
        "addr:state": "VA",
        "leisure": "sports_centre",
        "name": "Harpers Ferry Adventure Center",
        "operator": "Harpers Ferry Adventure Center",
        "sport": "climbing_adventure;zipline",
        "website": "https://harpersferryadventurecenter.com/",
        "@geometry": "center"
      },
      "geometry": {
        "type": "Point",
        "coordinates": [
          -77.707508,
          39.3182592
        ]
      },
      "id": "way/1318854277"
    },
    {
      "type": "Feature",
      "properties": {
        "@id": "way/1344437758",
        "addr:city": "Woodbridge",
        "addr:housenumber": "2700",
        "addr:postcode": "22192",
        "addr:state": "VA",
        "addr:street": "Potomac Mills Circle",
        "arcade_game": "claw",
        "brand": "Round1",
        "brand:wikidata": "Q11346634",
        "indoor": "area",
        "leisure": "amusement_arcade",
        "level": "0",
        "name": "Round1 Bowling & Arcade",
        "sport": "10pin",
        "website": "https://www.round1usa.com/",
        "@geometry": "center"
      },
      "geometry": {
        "type": "Point",
        "coordinates": [
          -77.2982674,
          38.6426457
        ]
      },
      "id": "way/1344437758"
    },
    {
      "type": "Feature",
      "properties": {
        "@id": "way/1361479356",
        "addr:city": "Lorton",
        "addr:postcode": "22079",
        "addr:state": "VA",
        "addr:street": "Pohick Bay Drive",
        "leisure": "water_park",
        "name": "Pirate's Cove Waterpark",
        "operator": "Northern Virginia Regional Park Authority",
        "website": "https://www.novaparks.com/waterparks/pirates-cove-waterpark",
        "@geometry": "center"
      },
      "geometry": {
        "type": "Point",
        "coordinates": [
          -77.1687221,
          38.6720655
        ]
      },
      "id": "way/1361479356"
    },
    {
      "type": "Feature",
      "properties": {
        "@id": "way/1458401668",
        "addr:city": "Sterling",
        "addr:postcode": "20166",
        "addr:state": "VA",
        "addr:street": "Jesse Court",
        "leisure": "miniature_golf",
        "name": "Dulles Golf Center Mini Golf",
        "website": "https://dullesgolf.com/blog/18-hole-miniature-golf-course/",
        "@geometry": "center"
      },
      "geometry": {
        "type": "Point",
        "coordinates": [
          -77.4286643,
          39.0184366
        ]
      },
      "id": "way/1458401668"
    },
    {
      "type": "Feature",
      "properties": {
        "@id": "way/1462708123",
        "addr:city": "Lorton",
        "addr:housenumber": "6501",
        "addr:postcode": "22079",
        "addr:state": "VA",
        "addr:street": "Pohick Bay Drive",
        "leisure": "miniature_golf",
        "name": "Treasure Island Mini Golf",
        "website": "https://www.novaparks.com/parks/pohick-bay-regional-park",
        "@geometry": "center"
      },
      "geometry": {
        "type": "Point",
        "coordinates": [
          -77.1709912,
          38.672893
        ]
      },
      "id": "way/1462708123"
    },
    {
      "type": "Feature",
      "properties": {
        "@id": "node/1655593237",
        "addr:city": "Annandale",
        "addr:state": "VA",
        "building": "yes",
        "leisure": "bowling_alley",
        "name": "Bowlero Annandale",
        "sport": "10pin",
        "website": "https://www.bowlero.com/location/bowlero-annandale"
      },
      "geometry": {
        "type": "Point",
        "coordinates": [
          -77.1976332,
          38.8318297
        ]
      },
      "id": "node/1655593237"
    },
    {
      "type": "Feature",
      "properties": {
        "@id": "node/2222776502",
        "addr:city": "Centerville",
        "addr:state": "VA",
        "leisure": "bowling_alley",
        "name": "Lucky Strike Centerville",
        "sport": "10pin",
        "website": "https://www.luckystrikeent.com/location/lucky-strike-centreville"
      },
      "geometry": {
        "type": "Point",
        "coordinates": [
          -77.4247907,
          38.8395428
        ]
      },
      "id": "node/2222776502"
    },
    {
      "type": "Feature",
      "properties": {
        "@id": "node/2527401534",
        "addr:city": "Dumfries",
        "addr:housenumber": "5101",
        "addr:state": "VA",
        "addr:street": "Waterway Drive",
        "leisure": "indoor_play",
        "name": "Unplug and Play!",
        "website": "https://unplugandplayplayground.com/"
      },
      "geometry": {
        "type": "Point",
        "coordinates": [
          -77.3580797,
          38.6100799
        ]
      },
      "id": "node/2527401534"
    },
    {
      "type": "Feature",
      "properties": {
        "@id": "node/2537497893",
        "addr:city": "Falls Church",
        "addr:housenumber": "3447",
        "addr:postcode": "22041",
        "addr:state": "VA",
        "addr:street": "Carlin Springs Road",
        "brand": "Ultrazone",
        "check_date": "2023-10-07",
        "fee": "yes",
        "internet_access": "wlan",
        "internet_access:fee": "customers",
        "leisure": "sports_centre",
        "name": "Ultrazone Bailey's Crossroads",
        "opening_hours": "Th 16:00-20:00; Fr 16:00-24:00; Sa 10:00-24:00; Su 12:00-20:00",
        "payment:mastercard": "yes",
        "payment:visa": "yes",
        "phone": "+1-703-382-8388",
        "sport": "laser_tag",
        "website": "http://www.ultrazonebaileys.com/"
      },
      "geometry": {
        "type": "Point",
        "coordinates": [
          -77.1232505,
          38.8497264
        ]
      },
      "id": "node/2537497893"
    },
    {
      "type": "Feature",
      "properties": {
        "@id": "node/2880512726",
        "addr:city": "Leesburg",
        "addr:housenumber": "49",
        "addr:postcode": "20175",
        "addr:state": "VA",
        "addr:street": "Catoctin Circle Southeast",
        "leisure": "bowling_alley",
        "name": "The Branch",
        "sport": "10pin",
        "website": "https://bowlthebranch.com/"
      },
      "geometry": {
        "type": "Point",
        "coordinates": [
          -77.5633094,
          39.1059743
        ]
      },
      "id": "node/2880512726"
    },
    {
      "type": "Feature",
      "properties": {
        "@id": "node/3222248272",
        "addr:city": "Springfield",
        "addr:housenumber": "7200",
        "addr:postcode": "22150",
        "addr:state": "VA",
        "addr:street": "Fullerton Road",
        "leisure": "trampoline_park",
        "name": "Flight Adventure Park",
        "website": "https://flightadventurepark.com/springfield/"
      },
      "geometry": {
        "type": "Point",
        "coordinates": [
          -77.1924411,
          38.7463743
        ]
      },
      "id": "node/3222248272"
    },
    {
      "type": "Feature",
      "properties": {
        "@id": "node/3388344455",
        "addr:city": "Leesburg",
        "addr:housenumber": "1602",
        "addr:postcode": "20175",
        "addr:state": "VA",
        "addr:street": "Village Market Boulevard Southeast",
        "addr:unit": "100",
        "leisure": "bowling_alley",
        "name": "Lucky Strike Leesburg",
        "opening_hours": "Mo-Th 15:00-22:00, Fr 14:00-24:00, Sa 12:00-24:00, Su 12:00-22:00",
        "phone": "+1 703-443-8001",
        "sport": "10pin",
        "website": "https://www.luckystrikeent.com/location/lucky-strike-leesburg"
      },
      "geometry": {
        "type": "Point",
        "coordinates": [
          -77.5261573,
          39.0906742
        ]
      },
      "id": "node/3388344455"
    },
    {
      "type": "Feature",
      "properties": {
        "@id": "node/3882772661",
        "addr:city": "Woodbridge",
        "addr:housenumber": "14173",
        "addr:postcode": "22192",
        "addr:state": "VA",
        "addr:street": "Crossing Place",
        "brand": "Urban Air",
        "brand:wikidata": "Q110172893",
        "entrance": "yes",
        "leisure": "trampoline_park",
        "name": "Urban Air",
        "official_name": "Urban Air Trampoline and Adventure Park",
        "old_name": "Babies R Us",
        "website": "https://urbanair.com"
      },
      "geometry": {
        "type": "Point",
        "coordinates": [
          -77.284266,
          38.6533221
        ]
      },
      "id": "node/3882772661"
    },
    {
      "type": "Feature",
      "properties": {
        "@id": "node/3901330162",
        "addr:city": "Fairfax",
        "addr:housenumber": "9699",
        "addr:postcode": "22031",
        "addr:state": "VA",
        "addr:street": "Fairfax Boulevard",
        "leisure": "bowling_alley",
        "name": "Bowl America Fairfax",
        "phone": "+1 703-2737700",
        "sport": "10pin",
        "website": "https://www.bowlero.com/location/bowl-america-fairfax"
      },
      "geometry": {
        "type": "Point",
        "coordinates": [
          -77.2784778,
          38.862867
        ]
      },
      "id": "node/3901330162"
    },
    {
      "type": "Feature",
      "properties": {
        "@id": "node/4205211289",
        "addr:city": "Manassas",
        "addr:housenumber": "8300",
        "addr:state": "VA",
        "addr:street": "Sudley Road",
        "brand": "K1 Speed",
        "brand:wikidata": "Q105615897",
        "indoor": "yes",
        "leisure": "sports_centre",
        "name": "K1 Speed",
        "opening_hours": "Mo-Th 11:00-22:00, Fr 11:00- 24:00, Sa 10:00-24:00, Su 10:00-20:00 || \"by arrangement\"",
        "outdoor": "no",
        "phone": "+1 571-762-2100",
        "sport": "karting",
        "tourism": "attraction",
        "website": "https://www.k1speed.com/manassas-location.html"
      },
      "geometry": {
        "type": "Point",
        "coordinates": [
          -77.5050928,
          38.7716125
        ]
      },
      "id": "node/4205211289"
    },
    {
      "type": "Feature",
      "properties": {
        "@id": "node/4205213237",
        "addr:city": "Manassas",
        "addr:housenumber": "7807",
        "addr:state": "VA",
        "addr:street": "Sudley Road",
        "brand": "Sky Zone",
        "brand:wikidata": "Q7537557",
        "leisure": "trampoline_park",
        "name": "Sky Zone Trampoline Park",
        "website": "https://www.skyzone.com/manassas/"
      },
      "geometry": {
        "type": "Point",
        "coordinates": [
          -77.5106528,
          38.7870334
        ]
      },
      "id": "node/4205213237"
    },
    {
      "type": "Feature",
      "properties": {
        "@id": "node/4838836469",
        "addr:city": "Springfield",
        "addr:state": "VA",
        "attraction": "carousel",
        "name": "Lake Accotink Carousel",
        "tourism": "attraction",
        "website": "https://www.fairfaxcounty.gov/parks/lake-accotink/carousel"
      },
      "geometry": {
        "type": "Point",
        "coordinates": [
          -77.2153823,
          38.7943317
        ]
      },
      "id": "node/4838836469"
    },
    {
      "type": "Feature",
      "properties": {
        "@id": "node/5166509339",
        "addr:city": "Herndon",
        "addr:housenumber": "2465",
        "addr:postcode": "20171",
        "addr:state": "VA",
        "addr:street": "Centreville Road",
        "amenity": "restaurant",
        "brand": "Chuck E. Cheese",
        "brand:wikidata": "Q2438391",
        "cuisine": "pizza",
        "leisure": "amusement_arcade",
        "name": "Chuck E. Cheese",
        "opening_hours": "Su-Th 11:00-21:00, Fr 11:00-22:00, Sa 10:00-22:00",
        "phone": "+1 703-713-0231",
        "website": "https://locations.chuckecheese.com/us/va/herndon/2465-centreville"
      },
      "geometry": {
        "type": "Point",
        "coordinates": [
          -77.4101014,
          38.9502696
        ]
      },
      "id": "node/5166509339"
    },
    {
      "type": "Feature",
      "properties": {
        "@id": "node/5632676597",
        "addr:city": "Sterling",
        "addr:housenumber": "23521",
        "addr:postcode": "20166",
        "addr:state": "VA",
        "addr:street": "Overland Drive",
        "leisure": "indoor_play",
        "name": "Monkey Joe's",
        "website": "https://www.monkeyjoes.com/"
      },
      "geometry": {
        "type": "Point",
        "coordinates": [
          -77.4959486,
          38.9645836
        ]
      },
      "id": "node/5632676597"
    },
    {
      "type": "Feature",
      "properties": {
        "@id": "node/5766534017",
        "addr:city": "Alexandria",
        "addr:housenumber": "814",
        "addr:state": "VA",
        "addr:street": "King Street",
        "addr:unit": "Floor 2",
        "check_date": "2023-04-15",
        "leisure": "escape_game",
        "name": "Escape Room Live",
        "opening_hours": "Mo-Th 17:00-22:00; Fr 17:00-23:00; Sa 10:00-23:00; Su 12:00-19:00",
        "phone": "+1-800-616-4880",
        "website": "https://www.escaperoomlive.com/"
      },
      "geometry": {
        "type": "Point",
        "coordinates": [
          -77.0487509,
          38.8050876
        ]
      },
      "id": "node/5766534017"
    },
    {
      "type": "Feature",
      "properties": {
        "@id": "node/6139278008",
        "addr:city": "Leesburg",
        "addr:housenumber": "1604",
        "addr:state": "VA",
        "addr:street": "Village Market Boulevard Southeast",
        "addr:unit": "110",
        "leisure": "trampoline_park",
        "name": "Altitude Trampoline Park",
        "phone": "+1 571-206-3330",
        "sport": "trampoline;basketball;dogeball",
        "website": "https://www.altitudetrampolinepark.com/locations/virginia/leesburg/1604-village-market-boulevard-se/"
      },
      "geometry": {
        "type": "Point",
        "coordinates": [
          -77.5249996,
          39.0901279
        ]
      },
      "id": "node/6139278008"
    },
    {
      "type": "Feature",
      "properties": {
        "@id": "node/6254327443",
        "addr:city": "Sterling",
        "addr:country": "US",
        "addr:housenumber": "45685",
        "addr:postcode": "20166",
        "addr:state": "VA",
        "addr:street": "Oakbrook Court",
        "addr:unit": "110",
        "leisure": "trampoline_park",
        "name": "ZavaZone",
        "website": "https://www.zavazone.com/"
      },
      "geometry": {
        "type": "Point",
        "coordinates": [
          -77.4187994,
          39.0094524
        ]
      },
      "id": "node/6254327443"
    },
    {
      "type": "Feature",
      "properties": {
        "@id": "node/6338152056",
        "addr:city": "Fairfax",
        "addr:housenumber": "9404",
        "addr:postcode": "22031",
        "addr:state": "VA",
        "addr:street": "Main Street",
        "amenity": "restaurant",
        "brand": "Chuck E. Cheese",
        "brand:wikidata": "Q2438391",
        "cuisine": "pizza",
        "leisure": "amusement_arcade",
        "name": "Chuck E. Cheese",
        "outdoor_seating": "no",
        "phone": "+1-703-978-5755",
        "website": "https://locations.chuckecheese.com/us/va/fairfax/9404-main-st"
      },
      "geometry": {
        "type": "Point",
        "coordinates": [
          -77.2703869,
          38.8416605
        ]
      },
      "id": "node/6338152056"
    },
    {
      "type": "Feature",
      "properties": {
        "@id": "node/6561561425",
        "addr:city": "Herndon",
        "addr:housenumber": "406",
        "addr:postcode": "20170",
        "addr:state": "VA",
        "addr:street": "Elden Street",
        "contact:instagram": "https://www.instagram.com/escapeherndon",
        "leisure": "escape_game",
        "name": "Escape Room Herndon",
        "website": "https://escaperoomherndon.com"
      },
      "geometry": {
        "type": "Point",
        "coordinates": [
          -77.37394,
          38.9699681
        ]
      },
      "id": "node/6561561425"
    },
    {
      "type": "Feature",
      "properties": {
        "@id": "node/6993933259",
        "addr:city": "Manassas",
        "addr:postcode": "20110",
        "addr:state": "VA",
        "addr:street": "Center Street",
        "leisure": "ice_rink",
        "name": "Harris Pavilion Ice Rink",
        "seasonal": "yes",
        "sport": "ice_skating",
        "website": "https://www.manassasva.gov/parks_culture_and_recreation/ice_skating.php"
      },
      "geometry": {
        "type": "Point",
        "coordinates": [
          -77.4738178,
          38.7505527
        ]
      },
      "id": "node/6993933259"
    },
    {
      "type": "Feature",
      "properties": {
        "@id": "node/8828483965",
        "addr:city": "Arlington",
        "addr:housenumber": "320",
        "addr:postcode": "22202",
        "addr:state": "VA",
        "addr:street": "23rd Street South",
        "branch": "Arlington",
        "leisure": "bowling_alley",
        "name": "Lucky Strike Arlington",
        "not:brand:wikidata": "Q17102967",
        "operator": "Bowlero",
        "website": "https://www.bowlero.com/location/lucky-strike-arlington"
      },
      "geometry": {
        "type": "Point",
        "coordinates": [
          -77.0516279,
          38.8531453
        ]
      },
      "id": "node/8828483965"
    },
    {
      "type": "Feature",
      "properties": {
        "@id": "node/9118222720",
        "addr:city": "Fairfax",
        "addr:housenumber": "12000",
        "addr:postcode": "22033",
        "addr:state": "VA",
        "addr:street": "Fair Oaks Mall",
        "amenity": "restaurant",
        "brand": "Dave & Buster's",
        "brand:wikidata": "Q5228205",
        "cuisine": "american",
        "leisure": "amusement_arcade",
        "name": "Dave & Buster's",
        "phone": "+1-703-385-2299",
        "ref": "1814"
      },
      "geometry": {
        "type": "Point",
        "coordinates": [
          -77.3615207,
          38.8635192
        ]
      },
      "id": "node/9118222720"
    },
    {
      "type": "Feature",
      "properties": {
        "@id": "node/9522570873",
        "addr:city": "Franconia",
        "addr:state": "VA",
        "attraction": "carousel",
        "name": "Chessieâ€™s Carousel",
        "tourism": "attraction",
        "website": "https://www.fairfaxcounty.gov/parks/recenter/franconia/family-recreation-area",
        "wheelchair": "yes"
      },
      "geometry": {
        "type": "Point",
        "coordinates": [
          -77.1111985,
          38.7737707
        ]
      },
      "id": "node/9522570873"
    },
    {
      "type": "Feature",
      "properties": {
        "@id": "node/9879087409",
        "addr:city": "Alexandria",
        "addr:housenumber": "340",
        "addr:postcode": "22304",
        "addr:state": "VA",
        "addr:street": "South Pickett Street",
        "check_date": "2025-12-11",
        "leisure": "trampoline_park",
        "name": "Get Air Trampoline Park",
        "website": "https://getairsports.com/alexandria/"
      },
      "geometry": {
        "type": "Point",
        "coordinates": [
          -77.1236729,
          38.8076258
        ]
      },
      "id": "node/9879087409"
    },
    {
      "type": "Feature",
      "properties": {
        "@id": "node/10566490478",
        "addr:city": "Arlington",
        "addr:housenumber": "2301",
        "addr:postcode": "22204",
        "addr:state": "VA",
        "addr:street": "Columbia Pike",
        "addr:unit": "C",
        "leisure": "escape_game",
        "name": "Ravenchase Adventures Escape Room",
        "website": "https://www.escaperoomarlington.com/"
      },
      "geometry": {
        "type": "Point",
        "coordinates": [
          -77.0832382,
          38.8639022
        ]
      },
      "id": "node/10566490478"
    },
    {
      "type": "Feature",
      "properties": {
        "@id": "node/11166022139",
        "addr:city": "Centerville",
        "addr:housenumber": "5111",
        "addr:postcode": "20120",
        "addr:state": "VA",
        "addr:street": "Westfields Boulevard",
        "leisure": "amusement_arcade",
        "name": "Fun Land of Fairfax",
        "sport": "laser_tag;karting;climbing_adventure",
        "website": "https://www.visitfunland.com/fairfax-home"
      },
      "geometry": {
        "type": "Point",
        "coordinates": [
          -77.4471687,
          38.8668683
        ]
      },
      "id": "node/11166022139"
    },
    {
      "type": "Feature",
      "properties": {
        "@id": "node/11374218582",
        "addr:city": "Arlington",
        "addr:housenumber": "4238",
        "addr:postcode": "22203",
        "addr:state": "VA",
        "addr:street": "Wilson Boulevard",
        "branch": "Arlington",
        "brand": "5 Wits",
        "leisure": "escape_game",
        "level": "2",
        "name": "5 Wits",
        "opening_hours": "Mo-Th 12:00-19:00; Fr 12:00-20:00; Sa 12:00-21:00; Su 12:00-18:00",
        "phone": "+1-703-997-9694",
        "website": "https://5-wits.com/arlington/"
      },
      "geometry": {
        "type": "Point",
        "coordinates": [
          -77.1114938,
          38.8791325
        ]
      },
      "id": "node/11374218582"
    },
    {
      "type": "Feature",
      "properties": {
        "@id": "node/11828484872",
        "addr:city": "Arlington",
        "addr:housenumber": "2406",
        "addr:postcode": "22204",
        "addr:state": "VA",
        "addr:street": "Columbia Pike",
        "contact:instagram": "https://www.instagram.com/thepinballbasement",
        "leisure": "amusement_arcade",
        "name": "The Pinball Basement",
        "opening_hours": "We-Fr 15:00-21:00; Sa 09:00-21:00; Su 09:00-19:00",
        "website": "https://www.thepinballbasement.com/"
      },
      "geometry": {
        "type": "Point",
        "coordinates": [
          -77.0835844,
          38.8632835
        ]
      },
      "id": "node/11828484872"
    },
    {
      "type": "Feature",
      "properties": {
        "@id": "node/11967142942",
        "addr:city": "Manassas",
        "addr:housenumber": "8300",
        "addr:postcode": "20109",
        "addr:state": "VA",
        "addr:street": "Sudley Road",
        "addr:unit": "A-7",
        "air_conditioning": "yes",
        "contact:facebook": "https://www.facebook.com/UptownAlleyMVA/",
        "leisure": "bowling_alley",
        "name": "Uptown Alley",
        "opening_hours": "Su-Th 10:00-22:00; Fr-Sa 10:00-00:00",
        "payment:cards": "yes",
        "payment:cash": "yes",
        "phone": "+1 571 719 3284",
        "smoking": "no",
        "sport": "10pin;laser_tag",
        "website": "https://uptownalleymanassas.com"
      },
      "geometry": {
        "type": "Point",
        "coordinates": [
          -77.5029227,
          38.7723455
        ]
      },
      "id": "node/11967142942"
    },
    {
      "type": "Feature",
      "properties": {
        "@id": "node/12164060048",
        "addr:city": "Woodbridge",
        "addr:housenumber": "3045",
        "addr:postcode": "22191",
        "addr:state": "VA",
        "addr:street": "Golansky Boulevard",
        "leisure": "amusement_arcade",
        "name": "Team Tactics",
        "sport": "laser_tag",
        "website": "https://teamtactics.us/"
      },
      "geometry": {
        "type": "Point",
        "coordinates": [
          -77.3041442,
          38.6518021
        ]
      },
      "id": "node/12164060048"
    },
    {
      "type": "Feature",
      "properties": {
        "@id": "node/12207810917",
        "addr:city": "Alexandria",
        "addr:housenumber": "4620",
        "addr:postcode": "22304",
        "addr:state": "VA",
        "addr:street": "Kenmore Avenue",
        "arcade_game": "video_game",
        "contact:instagram": "https://www.instagram.com/doylesoutpost/",
        "leisure": "amusement_arcade",
        "name": "Doyles Outpost",
        "opening_hours": "We-Th 16:00-22:00; Fr 16:00-24:00; Sa 12:00-24:00; Su 12:00-20:00; Mo-Tu \"private events only\"",
        "phone": "+1-571-551-2080",
        "source": "esri/USA_NAD_Addresses",
        "sport": "laser_tag;basketball",
        "website": "https://doylesoutpost.com/"
      },
      "geometry": {
        "type": "Point",
        "coordinates": [
          -77.1089826,
          38.8294862
        ]
      },
      "id": "node/12207810917"
    },
    {
      "type": "Feature",
      "properties": {
        "@id": "node/12323666678",
        "addr:city": "Manassas",
        "addr:housenumber": "7730",
        "addr:postcode": "20109",
        "addr:state": "VA",
        "addr:street": "Stream Walk Lane",
        "leisure": "amusement_arcade",
        "name": "Chuck E. Cheese",
        "website": "https://www.chuckecheese.com/manassas-va/"
      },
      "geometry": {
        "type": "Point",
        "coordinates": [
          -77.5202392,
          38.7958277
        ]
      },
      "id": "node/12323666678"
    },
    {
      "type": "Feature",
      "properties": {
        "@id": "node/13134558525",
        "addr:city": "Alexandria",
        "addr:housenumber": "1050",
        "addr:postcode": "22314",
        "addr:state": "VA",
        "addr:street": "North Fayette Street",
        "arcade_game": "skeeball;video_game;",
        "bar": "yes",
        "contact:instagram": "https://www.instagram.com/continuesarcade/",
        "description": "Arcade, bar, & restaurant",
        "leisure": "amusement_arcade",
        "name": "Continues",
        "opening_hours": "Mo 07:30-11:30; Tu-Fr 07:30-11:30,17:00-23:00; Sa-Su 08:30-12:00,17:00-23:00",
        "phone": "+1-703-713-5692",
        "website": "https://www.continuesarcade.com/"
      },
      "geometry": {
        "type": "Point",
        "coordinates": [
          -77.050376,
          38.8167104
        ]
      },
      "id": "node/13134558525"
    },
    {
      "type": "Feature",
      "properties": {
        "@id": "node/13259584115",
        "addr:city": "Bluemont",
        "addr:state": "VA",
        "leisure": "miniature_golf",
        "name": "Great Country Farms Cow Pie Putt Putt",
        "website": "https://greatcountryfarms.com/attractions/"
      },
      "geometry": {
        "type": "Point",
        "coordinates": [
          -77.8249088,
          39.0950386
        ]
      },
      "id": "node/13259584115"
    },
    {
      "type": "Feature",
      "properties": {
        "@id": "node/13313655046",
        "addr:city": "Sterling",
        "addr:state": "VA",
        "attraction": "carousel",
        "check_date:currency:XBT": "2025-11-18",
        "currency:XBT": "yes",
        "name": "The Carousel",
        "operator": "Heritage Amusements",
        "payment:lightning": "yes",
        "payment:lightning:operator": "square",
        "payment:onchain": "no",
        "website": "https://www.shopdullestowncenter.com/store/the-carousel"
      },
      "geometry": {
        "type": "Point",
        "coordinates": [
          -77.4234891,
          39.0319397
        ]
      },
      "id": "node/13313655046"
    },
    {
      "type": "Feature",
      "properties": {
        "@id": "node/13313722392",
        "addr:city": "Springfield",
        "addr:state": "VA",
        "attraction": "carousel",
        "check_date:currency:XBT": "2025-11-18",
        "currency:XBT": "yes",
        "name": "Heritage Amusements Carousel",
        "operator": "Heritage Amusements",
        "payment:lightning": "yes",
        "payment:lightning:operator": "square",
        "payment:onchain": "no",
        "website": "https://www.springfieldtowncenter.com/store/carousel"
      },
      "geometry": {
        "type": "Point",
        "coordinates": [
          -77.1754078,
          38.774745
        ]
      },
      "id": "node/13313722392"
    },
    {
      "type": "Feature",
      "properties": {
        "@id": "node/13367923093",
        "addr:city": "Sterling",
        "addr:housenumber": "21000",
        "addr:postcode": "20166",
        "addr:state": "VA",
        "addr:street": "Dulles Town Circle",
        "leisure": "amusement_arcade",
        "name": "810 Entertainment",
        "sport": "10pin; darts;billiards;laser_tag;virtual_reality",
        "virtual_reality": "yes",
        "website": "https://810bowling.com/810-entertainment-in-sterling-va"
      },
      "geometry": {
        "type": "Point",
        "coordinates": [
          -77.425843,
          39.0332549
        ]
      },
      "id": "node/13367923093"
    },
    {
      "type": "Feature",
      "properties": {
        "@id": "node/13368009961",
        "addr:city": "Sterling",
        "addr:housenumber": "21100",
        "addr:postcode": "20166",
        "addr:state": "VA",
        "addr:street": "Dulles Town Circle",
        "addr:unit": "Suite 163 and 207",
        "contact:phone": "+1 703-485-9493",
        "leisure": "amusement_arcade",
        "name": "XRTOPIA",
        "sport": "virtual_reality",
        "virtual_reality": "yes",
        "website": "https://xrtopia.com"
      },
      "geometry": {
        "type": "Point",
        "coordinates": [
          -77.4243893,
          39.0332101
        ]
      },
      "id": "node/13368009961"
    },
    {
      "type": "Feature",
      "properties": {
        "@id": "node/13368584226",
        "addr:city": "Fairfax",
        "addr:housenumber": "3949",
        "addr:state": "VA",
        "addr:street": "University Drive",
        "contact:phone": "+1 703-270-0377",
        "leisure": "escape_game",
        "name": "Bond's Escape Room",
        "website": "https://bondsescaperoom.com"
      },
      "geometry": {
        "type": "Point",
        "coordinates": [
          -77.304058,
          38.8476294
        ]
      },
      "id": "node/13368584226"
    },
    {
      "type": "Feature",
      "properties": {
        "@id": "node/13368617254",
        "addr:city": "Ashburn",
        "addr:housenumber": "20051",
        "addr:postcode": "20147",
        "addr:state": "VA",
        "addr:street": "Riverside Commons Plaza",
        "addr:unit": "136",
        "leisure": "sports_centre",
        "name": "Up! Ultimate Adventure Park",
        "sport": "climbing_adventure;obstacle_course;slick_slide",
        "website": "https://www.upultimateadventurepark.com"
      },
      "geometry": {
        "type": "Point",
        "coordinates": [
          -77.4608217,
          39.0626864
        ]
      },
      "id": "node/13368617254"
    },
    {
      "type": "Feature",
      "properties": {
        "@id": "node/13370758987",
        "addr:city": "Chantilly",
        "addr:housenumber": "14130",
        "addr:postcode": "20151",
        "addr:state": "VA",
        "addr:street": "Sullyfield Circle",
        "addr:unit": "G",
        "leisure": "miniature_golf",
        "name": "Monster Mini Golf",
        "sport": "10pin;laser_tag;miniature_golf",
        "website": "https://monsterminigolf.com/locations/us/va/chantilly/"
      },
      "geometry": {
        "type": "Point",
        "coordinates": [
          -77.4399595,
          38.8945505
        ]
      },
      "id": "node/13370758987"
    },
    {
      "type": "Feature",
      "properties": {
        "@id": "node/13370911901",
        "addr:city": "Ashburn",
        "addr:housenumber": "21641",
        "addr:postcode": "20147",
        "addr:state": "VA",
        "addr:street": "Beaumeade Circle",
        "leisure": "indoor_play",
        "name": "Hyper Kidz Ashburn",
        "website": "https://ashburn.hyperkidzplay.com/"
      },
      "geometry": {
        "type": "Point",
        "coordinates": [
          -77.4570975,
          39.0207716
        ]
      },
      "id": "node/13370911901"
    },
    {
      "type": "Feature",
      "properties": {
        "@id": "node/13370948596",
        "addr:city": "Sterling",
        "addr:postcode": "20166",
        "addr:state": "VA",
        "addr:street": "Overland Drive",
        "leisure": "sports_centre",
        "name": "Ultrazone Loudooun",
        "sport": "laser_tag",
        "website": "https://ultrazoneloudoun.com/"
      },
      "geometry": {
        "type": "Point",
        "coordinates": [
          -77.4970061,
          38.9623412
        ]
      },
      "id": "node/13370948596"
    },
    {
      "type": "Feature",
      "properties": {
        "@id": "node/13372284579",
        "addr:city": "Sterling",
        "addr:housenumber": "45448",
        "addr:postcode": "20166",
        "addr:state": "VA",
        "addr:street": "East Severn Way",
        "leisure": "sports_centre",
        "name": "K1 Speed",
        "sport": "karting",
        "website": "https://www.k1speed.com/dulles-location.html"
      },
      "geometry": {
        "type": "Point",
        "coordinates": [
          -77.4278104,
          39.0213593
        ]
      },
      "id": "node/13372284579"
    },
    {
      "type": "Feature",
      "properties": {
        "@id": "node/13373165955",
        "addr:city": "Springfield",
        "addr:postcode": "22151",
        "addr:state": "VA",
        "arcade_game": "driving;shooting",
        "attraction": "water_slide",
        "leisure": "water_park",
        "name": "Super, Awesome & Amazing",
        "phone": "+1-703-705-9548",
        "sport": "climbing_adventure;swiming",
        "website": "https://www.superawesomeandamazing.com/"
      },
      "geometry": {
        "type": "Point",
        "coordinates": [
          -77.180956,
          38.7972344
        ]
      },
      "id": "node/13373165955"
    },
    {
      "type": "Feature",
      "properties": {
        "@id": "node/13374633696",
        "addr:city": "Ashburn",
        "addr:housenumber": "21720",
        "addr:postcode": "20147",
        "addr:state": "VA",
        "addr:street": "Red Rum Drive",
        "addr:unit": "177-182",
        "contact:phone": "+1 571-479-8567",
        "indoor_play": "disabled",
        "leisure": "indoor_play",
        "name": "We Rock the Spectrum",
        "website": "https://werockthespectrumloudounva.com/"
      },
      "geometry": {
        "type": "Point",
        "coordinates": [
          -77.4763235,
          39.0167913
        ]
      },
      "id": "node/13374633696"
    },
    {
      "type": "Feature",
      "properties": {
        "@id": "node/13375166109",
        "addr:city": "Fairfax",
        "addr:housenumber": "11960",
        "addr:postcode": "22033",
        "addr:state": "VA",
        "addr:street": "Fair Oaks Mall",
        "addr:unit": "L",
        "contact:phone": "+1-703-659-9622",
        "leisure": "amusement_arcade",
        "name": "Kako Claw",
        "website": "https://kakoclaw.com/locations/fair-oaks-mall/"
      },
      "geometry": {
        "type": "Point",
        "coordinates": [
          -77.3602335,
          38.8632509
        ]
      },
      "id": "node/13375166109"
    },
    {
      "type": "Feature",
      "properties": {
        "@id": "node/13375177571",
        "addr:city": "Springfield",
        "addr:housenumber": "6615",
        "addr:postcode": "22150",
        "addr:state": "VA",
        "addr:street": "Springfield Mall",
        "leisure": "amusement_arcade",
        "name": "Kako Claw",
        "website": "https://kakoclaw.com/locations/springfield-town-center/"
      },
      "geometry": {
        "type": "Point",
        "coordinates": [
          -77.1741602,
          38.7740752
        ]
      },
      "id": "node/13375177571"
    },
    {
      "type": "Feature",
      "properties": {
        "@id": "node/13375973544",
        "addr:city": "Fairfax",
        "addr:housenumber": "11750",
        "addr:state": "VA",
        "addr:street": "Fair Oaks Mall",
        "attraction": "animal_scooter",
        "description": "Electric Animal Scooters",
        "indoor": "yes",
        "name": "Fluffy Rides",
        "tourism": "attraction",
        "website": "https://www.fluffyrides.com/"
      },
      "geometry": {
        "type": "Point",
        "coordinates": [
          -77.3580945,
          38.8629272
        ]
      },
      "id": "node/13375973544"
    },
    {
      "type": "Feature",
      "properties": {
        "@id": "node/13376059279",
        "addr:city": "Manassas",
        "addr:state": "VA",
        "addr:street": "Sudley Road",
        "attraction": "animal_scooter",
        "indoor": "yes",
        "name": "Fluffy Rides",
        "tourism": "attraction",
        "website": "https://www.fluffyrides.com/"
      },
      "geometry": {
        "type": "Point",
        "coordinates": [
          -77.5061504,
          38.7723067
        ]
      },
      "id": "node/13376059279"
    },
    {
      "type": "Feature",
      "properties": {
        "@id": "node/13389852968",
        "addr:city": "Arlington",
        "addr:housenumber": "4238",
        "addr:postcode": "22203",
        "addr:state": "VA",
        "addr:street": "Wilson Boulevard",
        "leisure": "amusement_arcade",
        "name": "Immersive Gamebox",
        "website": "https://www.immersivegamebox.com/en-US/venues/ava-arlington-virginia/#venueinfo"
      },
      "geometry": {
        "type": "Point",
        "coordinates": [
          -77.1106795,
          38.8787771
        ]
      },
      "id": "node/13389852968"
    },
    {
      "type": "Feature",
      "properties": {
        "@id": "node/13391312950",
        "addr:city": "Leesburg",
        "addr:housenumber": "201",
        "addr:postcode": "20175",
        "addr:state": "VA",
        "addr:street": "Royal Street",
        "leisure": "escape_game",
        "name": "Escape Room Loco",
        "website": "https://escaperoomloco.com/"
      },
      "geometry": {
        "type": "Point",
        "coordinates": [
          -77.5624627,
          39.112587
        ]
      },
      "id": "node/13391312950"
    },
    {
      "type": "Feature",
      "properties": {
        "@id": "node/13391344384",
        "addr:city": "Gainesville",
        "addr:housenumber": "7471",
        "addr:postcode": "20175",
        "addr:state": "VA",
        "addr:street": "Somerset Crossing Drive",
        "leisure": "trampoline_park",
        "name": "Urban Air Trampoline and Adventure Park",
        "website": "https://www.urbanair.com/virginia-gainesville/"
      },
      "geometry": {
        "type": "Point",
        "coordinates": [
          -77.6298612,
          38.7940339
        ]
      },
      "id": "node/13391344384"
    },
    {
      "type": "Feature",
      "properties": {
        "@id": "node/13394086647",
        "addr:city": "Burke",
        "addr:state": "VA",
        "attraction": "carousel",
        "name": "Burke Lake Carousel",
        "website": "https://www.fairfaxcounty.gov/parks/burke-lake/rides"
      },
      "geometry": {
        "type": "Point",
        "coordinates": [
          -77.304457,
          38.7624401
        ]
      },
      "id": "node/13394086647"
    },
    {
      "type": "Feature",
      "properties": {
        "@id": "node/13396400192",
        "addr:city": "Sterling",
        "addr:housenumber": "20964",
        "addr:state": "VA",
        "addr:street": "Southbank Street",
        "leisure": "amusement_arcade",
        "name": "Activate Sterling",
        "website": "https://playactivate.com/en/sterling"
      },
      "geometry": {
        "type": "Point",
        "coordinates": [
          -77.3973285,
          39.0353415
        ]
      },
      "id": "node/13396400192"
    },
    {
      "type": "Feature",
      "properties": {
        "@id": "node/13396429939",
        "addr:city": "McLean",
        "addr:state": "VA",
        "leisure": "amusement_arcade",
        "name": "Level99 Tysons",
        "website": "https://www.level99.com/?loc=tysons-va"
      },
      "geometry": {
        "type": "Point",
        "coordinates": [
          -77.2187918,
          38.917929
        ]
      },
      "id": "node/13396429939"
    },
    {
      "type": "Feature",
      "properties": {
        "@id": "node/13410928933",
        "addr:city": "Woodbridge",
        "addr:housenumber": "13409",
        "addr:postcode": "22191",
        "addr:state": "VA",
        "addr:street": "Occoquan Road",
        "leisure": "bowling_alley",
        "name": "Bowl America Woodbridge",
        "sport": "10pin",
        "website": "https://www.bowlero.com/location/bowl-america-woodbridge"
      },
      "geometry": {
        "type": "Point",
        "coordinates": [
          -77.2508718,
          38.6616952
        ]
      },
      "id": "node/13410928933"
    },
    {
      "type": "Feature",
      "properties": {
        "@id": "node/13410967316",
        "addr:city": "Herndon",
        "addr:housenumber": "46940",
        "addr:state": "VA",
        "addr:street": "Woodson Drive",
        "leisure": "bowling_alley",
        "name": "Lucky Strike Sterling",
        "phone": "+1-571-325-3067",
        "sport": "10pin",
        "website": "https://www.luckystrikeent.com/location/lucky-strike-sterling"
      },
      "geometry": {
        "type": "Point",
        "coordinates": [
          -77.3753196,
          39.010733
        ]
      },
      "id": "node/13410967316"
    },
    {
      "type": "Feature",
      "properties": {
        "@id": "node/13411621605",
        "addr:city": "Manassas",
        "addr:housenumber": "8300",
        "addr:postcode": "20109",
        "addr:state": "VA",
        "addr:street": "Sudley Road",
        "leisure": "indoor_play",
        "name": "Billy Beez",
        "website": "https://billybeezus.com/location/manassas-mall/"
      },
      "geometry": {
        "type": "Point",
        "coordinates": [
          -77.5057085,
          38.7737122
        ]
      },
      "id": "node/13411621605"
    },
    {
      "type": "Feature",
      "properties": {
        "@id": "node/13411624577",
        "addr:city": "Chantilly",
        "addr:housenumber": "13905",
        "addr:postcode": "20151",
        "addr:state": "VA",
        "addr:street": "Metrotech Drive",
        "leisure": "indoor_play",
        "name": "Me Land Chantilly",
        "phone": "+1-571-888-3558",
        "website": "https://melandplay.com/chantilly-va"
      },
      "geometry": {
        "type": "Point",
        "coordinates": [
          -77.4260992,
          38.8940119
        ]
      },
      "id": "node/13411624577"
    },
    {
      "type": "Feature",
      "properties": {
        "@id": "node/13411626621",
        "addr:city": "Woodbridge",
        "addr:housenumber": "2700",
        "addr:postcode": "22192",
        "addr:state": "VA",
        "addr:street": "Potomac Mills Circle",
        "addr:unit": "711",
        "leisure": "trampoline_park",
        "name": "Off Limitz Adventure Park",
        "sport": "laser_tag",
        "website": "https://www.healthyfunone.com/"
      },
      "geometry": {
        "type": "Point",
        "coordinates": [
          -77.2976026,
          38.6447065
        ]
      },
      "id": "node/13411626621"
    },
    {
      "type": "Feature",
      "properties": {
        "@id": "node/13411842883",
        "addr:city": "McLean",
        "addr:state": "VA",
        "attraction": "train",
        "name": "Resources Railroad",
        "railway": "miniature",
        "website": "https://www.fairfaxcounty.gov/parks/trains"
      },
      "geometry": {
        "type": "Point",
        "coordinates": [
          -77.156572,
          38.9446136
        ]
      },
      "id": "node/13411842883"
    },
    {
      "type": "Feature",
      "properties": {
        "@id": "node/13411984440",
        "addr:city": "Dulles",
        "addr:state": "VA",
        "attraction": "train",
        "name": "Fun House Express",
        "railway": "miniature",
        "website": "https://www.shopdullestowncenter.com/store/fun-house-express"
      },
      "geometry": {
        "type": "Point",
        "coordinates": [
          -77.4238166,
          39.0320683
        ]
      },
      "id": "node/13411984440"
    },
    {
      "type": "Feature",
      "properties": {
        "@id": "node/13417142886",
        "addr:city": "Warrenton",
        "addr:state": "VA",
        "leisure": "bowling_alley",
        "name": "Galaxy Strikes Bowling Center",
        "sport": "10pin",
        "website": "https://galaxystrikes.com/"
      },
      "geometry": {
        "type": "Point",
        "coordinates": [
          -77.8010212,
          38.7296522
        ]
      },
      "id": "node/13417142886"
    },
    {
      "type": "Feature",
      "properties": {
        "@id": "node/13419083422",
        "addr:city": "Arlington",
        "addr:floor": "2",
        "addr:state": "VA",
        "check_date": "2025-12-30",
        "leisure": "escape_game",
        "level": "2",
        "name": "Bondâ€™s Escape Room",
        "website": "https://bondsescaperoom.com/"
      },
      "geometry": {
        "type": "Point",
        "coordinates": [
          -77.0918972,
          38.8872283
        ]
      },
      "id": "node/13419083422"
    },
    {
      "type": "Feature",
      "properties": {
        "@id": "node/13422321431",
        "addr:city": "Warrenton",
        "addr:state": "VA",
        "leisure": "amusement_arcade",
        "name": "Arcade Underground",
        "website": "https://www.facebook.com/p/Arcade-Underground-61565131049868/"
      },
      "geometry": {
        "type": "Point",
        "coordinates": [
          -77.7937469,
          38.7127698
        ]
      },
      "id": "node/13422321431"
    },
    {
      "type": "Feature",
      "properties": {
        "@id": "node/13422361912",
        "addr:city": "Warrenton",
        "addr:housenumber": "6775",
        "addr:postcode": "20187",
        "addr:state": "VA",
        "addr:street": "Kennedy Road",
        "leisure": "indoor_play",
        "name": "Believe Imagination Station",
        "website": "https://www.believeimaginationstation.com/"
      },
      "geometry": {
        "type": "Point",
        "coordinates": [
          -77.6797074,
          38.7503098
        ]
      },
      "id": "node/13422361912"
    },
    {
      "type": "Feature",
      "properties": {
        "@id": "node/13422403247",
        "addr:city": "Manassas",
        "addr:state": "VA",
        "leisure": "amusement_arcade",
        "name": "Time Mission - Manassas",
        "website": "https://timemission.com/Manassas"
      },
      "geometry": {
        "type": "Point",
        "coordinates": [
          -77.5038672,
          38.7724167
        ]
      },
      "id": "node/13422403247"
    },
    {
      "type": "Feature",
      "properties": {
        "@id": "node/13436804975",
        "addr:city": "Fairfax",
        "addr:housenumber": "4211",
        "addr:state": "VA",
        "addr:street": "Fairfax Corner East Avenue",
        "brand": "Escapology",
        "brand:wikidata": "Q64137163",
        "leisure": "escape_game",
        "name": "Escapology",
        "website": "https://www.escapology.com/en/fairfax-va"
      },
      "geometry": {
        "type": "Point",
        "coordinates": [
          -77.3559138,
          38.8585861
        ]
      },
      "id": "node/13436804975"
    },
    {
      "type": "Feature",
      "properties": {
        "@id": "node/13436842073",
        "addr:city": "Fairfax",
        "addr:state": "VA",
        "addr:street": "Main Street",
        "leisure": "indoor_play",
        "name": "Jolly Yolly Kids",
        "website": "https://www.jollyyollykids.com/fairfax/index.html"
      },
      "geometry": {
        "type": "Point",
        "coordinates": [
          -77.3236227,
          38.8521581
        ]
      },
      "id": "node/13436842073"
    },
    {
      "type": "Feature",
      "properties": {
        "@id": "node/13436879988",
        "addr:city": "McLean",
        "addr:state": "VA",
        "leisure": "bowling_alley",
        "name": "Lucky Strike Tysons Corner",
        "sport": "10pin",
        "website": "https://www.luckystrikeent.com/location/lucky-strike-tysons-corner"
      },
      "geometry": {
        "type": "Point",
        "coordinates": [
          -77.224786,
          38.9243203
        ]
      },
      "id": "node/13436879988"
    },
    {
      "type": "Feature",
      "properties": {
        "@id": "node/13525389043",
        "addr:city": "Tysons",
        "addr:state": "VA",
        "leisure": "amusement_arcade",
        "name": "Sandbox VR",
        "virtual_reality": "yes",
        "website": "https://sandboxvr.com/mclean"
      },
      "geometry": {
        "type": "Point",
        "coordinates": [
          -77.2327991,
          38.9243537
        ]
      },
      "id": "node/13525389043"
    },
    {
      "type": "Feature",
      "properties": {
        "@id": "node/13525417774",
        "arcade_game": "skeeball;driving;shooting",
        "leisure": "amusement_arcade",
        "name": "Corner Pocket",
        "sport": "billiards;table_tennis;table_soccer",
        "virtual_reality": "yes",
        "website": "https://studentcenters.gmu.edu/corner-pocket/"
      },
      "geometry": {
        "type": "Point",
        "coordinates": [
          -77.3055381,
          38.8307934
        ]
      },
      "id": "node/13525417774"
    },
    {
      "type": "Feature",
      "properties": {
        "@id": "node/13527659823",
        "addr:city": "Ashburn",
        "addr:country": "US",
        "addr:housenumber": "44933",
        "addr:postcode": "20147",
        "addr:state": "VA",
        "addr:street": "George Washington Boulevard",
        "addr:unit": "155",
        "gaming_lounge": "video_games",
        "leisure": "gaming_lounge",
        "name": "The Outer Limits",
        "phone": "+1-703-729-4768",
        "website": "https://www.theouterlimitsva.com/"
      },
      "geometry": {
        "type": "Point",
        "coordinates": [
          -77.445346,
          39.0579076
        ]
      },
      "id": "node/13527659823"
    },
    {
      "type": "Feature",
      "properties": {
        "@id": "node/13527733954",
        "addr:city": "Annandale",
        "addr:state": "VA",
        "gaming_lounge": "video_games",
        "leisure": "gaming_lounge",
        "name": "HunterM Gaming & ESports Center",
        "phone": "+1-703-750-0450",
        "website": "https://huntermgaming.com/"
      },
      "geometry": {
        "type": "Point",
        "coordinates": [
          -77.1892994,
          38.8280271
        ]
      },
      "id": "node/13527733954"
    },
    {
      "type": "Feature",
      "properties": {
        "@id": "node/13527734295",
        "addr:city": "Centreville",
        "addr:housenumber": "13810",
        "addr:postcode": "20121",
        "addr:state": "VA",
        "addr:street": "Braddock Road",
        "addr:unit": "B",
        "gaming_lounge": "video_games",
        "leisure": "gaming_lounge",
        "name": "iBattle Gaming & ESports Center",
        "phone": "+1-703-547-7172",
        "website": "https://ibattlegaming.com/"
      },
      "geometry": {
        "type": "Point",
        "coordinates": [
          -77.4274088,
          38.8384726
        ]
      },
      "id": "node/13527734295"
    },
    {
      "type": "Feature",
      "properties": {
        "@id": "node/13535669600",
        "addr:city": "Ashburn",
        "addr:housenumber": "20315",
        "addr:postcode": "20147",
        "addr:state": "VA",
        "addr:street": "Commonwealth Center Drive",
        "brand": "iFLY",
        "brand:wikidata": "Q64767105",
        "leisure": "sports_centre",
        "name": "iFLY",
        "phone": "+1 571-446-4359",
        "sport": "indoor_skydiving",
        "website": "https://www.iflyworld.com/loudoun/"
      },
      "geometry": {
        "type": "Point",
        "coordinates": [
          -77.4469423,
          39.0537881
        ]
      },
      "id": "node/13535669600"
    },
    {
      "type": "Feature",
      "properties": {
        "@id": "node/13538911034",
        "addr:city": "Franconia",
        "addr:country": "US",
        "addr:housenumber": "7005",
        "addr:postcode": "22310",
        "addr:state": "VA",
        "addr:street": "Manchester Boulevard",
        "addr:unit": "Suite 10B",
        "leisure": "indoor_play",
        "name": "Hyper Kidz Alexandria",
        "phone": "+1 703-936-2505",
        "website": "https://alexandria.hyperkidzplay.com/"
      },
      "geometry": {
        "type": "Point",
        "coordinates": [
          -77.154329,
          38.7665278
        ]
      },
      "id": "node/13538911034"
    },
    {
      "type": "Feature",
      "properties": {
        "@id": "node/13538942606",
        "addr:city": "Springfield",
        "addr:housenumber": "6563",
        "addr:postcode": "22150",
        "addr:state": "VA",
        "addr:street": "Springfield Mall",
        "addr:unit": "Suite 12004",
        "leisure": "indoor_play",
        "name": "Lego Discovery Center",
        "website": "https://www.legodiscoverycenter.com/washington-dc/"
      },
      "geometry": {
        "type": "Point",
        "coordinates": [
          -77.174831,
          38.774894
        ]
      },
      "id": "node/13538942606"
    },
    {
      "type": "Feature",
      "properties": {
        "@id": "node/13543780794",
        "addr:city": "Dulles",
        "addr:state": "VA",
        "leisure": "trampoline_park",
        "name": "Sky Zone Dulles",
        "phone": "+1 703-688-2122",
        "website": "https://www.skyzone.com/dulles-town-center-va/"
      },
      "geometry": {
        "type": "Point",
        "coordinates": [
          -77.4259255,
          39.0329726
        ]
      },
      "id": "node/13543780794"
    }
  ]
}